[{"OBJECT_NAME":"UTMN 2 (RS27S)","OBJECT_ID":"2023-091AP","EPOCH":"2026-03-09T23:09:07.917408","MEAN_MOTION":15.29495965,"ECCENTRICITY":0.00097379,"INCLINATION":97.5194,"RA_OF_ASC_NODE":134.949,"ARG_OF_PERICENTER":76.0788,"MEAN_ANOMALY":284.1534,"EPHEMERIS_TYPE":0,"CLASSIFICATION_TYPE":"U","NORAD_CAT_ID":57203,"ELEMENT_SET_NO":999,"REV_AT_EPOCH":14936,"BSTAR":0.00056135701,"MEAN_MOTION_DOT":0.00016013,"MEAN_MOTION_DDOT":0},{"OBJECT_NAME":"STARLINK-35384","OBJECT_ID":"2025-224C","EPOCH":"2026-03-09T02:31:41.882304","MEAN_MOTION":15.30204517,"ECCENTRICITY":8.099e-5,"INCLINATION":53.1627,"RA_OF_ASC_NODE":14.1515,"ARG_OF_PERICENTER":90.1051,"MEAN_ANOMALY":270.0043,"EPHEMERIS_TYPE":0,"CLASSIFICATION_TYPE":"U","NORAD_CAT_ID":65884,"ELEMENT_SET_NO":999,"REV_AT_EPOCH":2473,"BSTAR":0.0012035157,"MEAN_MOTION_DOT":0.00035461,"MEAN_MOTION_DDOT":0}]
